ONEWEB-0707             
1 61612U 24188U   25036.54493018  .00000038  00000+0  58727-4 0  9992
2 61612  87.9396 135.2289 0001138  75.9033 284.2228 13.23587023 16302
ONEWEB-0708             
1 61613U 24188V   25036.50429240 -.00004303  00000+0 -10237-1 0  9997
2 61613  87.8867 135.1913 0001240  58.3147 301.8108 13.23249654 18246
